TWILIGHT V              
1 67382U 26004V   26027.21508442  .00004920  00000+0  54178-3 0  9993
2 67382  97.8002  28.1268 0003646 209.0960 151.0054 14.87999890  2323
TWILIGHT W              
1 67383U 26004W   26027.28522285  .00004959  00000+0  54966-3 0  9999
2 67383  97.7978  28.1867 0004016 228.4332 131.6540 14.87724243  2333
TWILIGHT X              
1 67384U 26004X   26027.21403900  .00010312  00000+0  11230-2 0  9991
2 67384  97.7978  28.1256 0003052 209.3704 150.7341 14.88189153  2322
TWILIGHT Y              
1 67385U 26004Y   26027.28038794  .00009697  00000+0  10544-2 0  9995
2 67385  97.7989  28.1941 0002976 201.7649 158.3442 14.88270611  2331
TWILIGHT Z              
1 67386U 26004Z   26027.27899406  .00004305  00000+0  47137-3 0  9990
2 67386  97.7969  28.1949 0001859 198.3739 161.7411 14.88304801  2331
TWILIGHT AA             
1 67387U 26004AA  26027.27648677  .00007071  00000+0  76458-3 0  9994
2 67387  97.8020  28.2008 0003091 165.3385 194.7923 14.88595331  2333
TWILIGHT AB             
1 67388U 26004AB  26027.20795580  .00006674  00000+0  72025-3 0  9998
2 67388  97.8009  28.1357 0002728 151.6926 208.4440 14.88696660  2325
TWILIGHT AC             
1 67389U 26004AC  26027.24830227  .00007251  00000+0  36987-3 0  9990
2 67389  97.4567  28.3655 0005259 102.7250 257.4571 15.17023293  2376
CONNECTA IOT-16         
1 67390U 26004AD  26027.24780610  .00015327  00000+0  77687-3 0  9997
2 67390  97.4570  28.3675 0005493 101.4653 258.7197 15.17039266  2372
TWILIGHT AE             
1 67391U 26004AE  26027.24581549  .00011829  00000+0  59768-3 0  9991
2 67391  97.4519  28.3590 0006896  97.5768 262.6249 15.17205581  2379
TWILIGHT AF             
1 67392U 26004AF  26027.24335354  .00133987  00000+0  64651-2 0  9999
2 67392  97.4481  28.3575 0008156 104.9202 255.2935 15.18049708  2376
TWILIGHT AG             
1 67393U 26004AG  26027.30829564  .00025425  00000+0  12535-2 0  9999
2 67393  97.4540  28.4277 0007861 107.9187 252.2905 15.17889338  2385
