CCSDS_OMM_VERS = 2.0
CREATION_DATE  = 
ORIGINATOR     = 

OBJECT_NAME    = TWILIGHT V
OBJECT_ID      = 2026-004V
CENTER_NAME    = EARTH
REF_FRAME      = TEME
TIME_SYSTEM    = UTC
MEAN_ELEMENT_THEORY = SGP/SGP4

EPOCH          = 2026-01-27T05:09:43.293888
MEAN_MOTION    = 14.87999890
ECCENTRICITY   = .00036462
INCLINATION    = 97.8002
RA_OF_ASC_NODE = 28.1268
ARG_OF_PERICENTER = 209.0960
MEAN_ANOMALY   = 151.0054

EPHEMERIS_TYPE = 0
CLASSIFICATION_TYPE = U
NORAD_CAT_ID   = 67382
ELEMENT_SET_NO = 999
REV_AT_EPOCH   = 232
BSTAR          = .54178413E-3
MEAN_MOTION_DOT = .492E-4
MEAN_MOTION_DDOT = 0

CCSDS_OMM_VERS = 2.0
CREATION_DATE  = 
ORIGINATOR     = 

OBJECT_NAME    = TWILIGHT W
OBJECT_ID      = 2026-004W
CENTER_NAME    = EARTH
REF_FRAME      = TEME
TIME_SYSTEM    = UTC
MEAN_ELEMENT_THEORY = SGP/SGP4

EPOCH          = 2026-01-27T06:50:43.254240
MEAN_MOTION    = 14.87724243
ECCENTRICITY   = .0004016
INCLINATION    = 97.7978
RA_OF_ASC_NODE = 28.1867
ARG_OF_PERICENTER = 228.4332
MEAN_ANOMALY   = 131.6540

EPHEMERIS_TYPE = 0
CLASSIFICATION_TYPE = U
NORAD_CAT_ID   = 67383
ELEMENT_SET_NO = 999
REV_AT_EPOCH   = 233
BSTAR          = .54965938E-3
MEAN_MOTION_DOT = .4959E-4
MEAN_MOTION_DDOT = 0

CCSDS_OMM_VERS = 2.0
CREATION_DATE  = 
ORIGINATOR     = 

OBJECT_NAME    = TWILIGHT X
OBJECT_ID      = 2026-004X
CENTER_NAME    = EARTH
REF_FRAME      = TEME
TIME_SYSTEM    = UTC
MEAN_ELEMENT_THEORY = SGP/SGP4

EPOCH          = 2026-01-27T05:08:12.969600
MEAN_MOTION    = 14.88189153
ECCENTRICITY   = .00030529
INCLINATION    = 97.7978
RA_OF_ASC_NODE = 28.1256
ARG_OF_PERICENTER = 209.3704
MEAN_ANOMALY   = 150.7341

EPHEMERIS_TYPE = 0
CLASSIFICATION_TYPE = U
NORAD_CAT_ID   = 67384
ELEMENT_SET_NO = 999
REV_AT_EPOCH   = 232
BSTAR          = .11229765E-2
MEAN_MOTION_DOT = .10312E-3
MEAN_MOTION_DDOT = 0

CCSDS_OMM_VERS = 2.0
CREATION_DATE  = 
ORIGINATOR     = 

OBJECT_NAME    = TWILIGHT Y
OBJECT_ID      = 2026-004Y
CENTER_NAME    = EARTH
REF_FRAME      = TEME
TIME_SYSTEM    = UTC
MEAN_ELEMENT_THEORY = SGP/SGP4

EPOCH          = 2026-01-27T06:43:45.518016
MEAN_MOTION    = 14.88270611
ECCENTRICITY   = .00029769
INCLINATION    = 97.7989
RA_OF_ASC_NODE = 28.1941
ARG_OF_PERICENTER = 201.7649
MEAN_ANOMALY   = 158.3442

EPHEMERIS_TYPE = 0
CLASSIFICATION_TYPE = U
NORAD_CAT_ID   = 67385
ELEMENT_SET_NO = 999
REV_AT_EPOCH   = 233
BSTAR          = .10543803E-2
MEAN_MOTION_DOT = .9697E-4
MEAN_MOTION_DDOT = 0

CCSDS_OMM_VERS = 2.0
CREATION_DATE  = 
ORIGINATOR     = 

OBJECT_NAME    = TWILIGHT Z
OBJECT_ID      = 2026-004Z
CENTER_NAME    = EARTH
REF_FRAME      = TEME
TIME_SYSTEM    = UTC
MEAN_ELEMENT_THEORY = SGP/SGP4

EPOCH          = 2026-01-27T06:41:45.086784
MEAN_MOTION    = 14.88304801
ECCENTRICITY   = .00018597
INCLINATION    = 97.7969
RA_OF_ASC_NODE = 28.1949
ARG_OF_PERICENTER = 198.3739
MEAN_ANOMALY   = 161.7411

EPHEMERIS_TYPE = 0
CLASSIFICATION_TYPE = U
NORAD_CAT_ID   = 67386
ELEMENT_SET_NO = 999
REV_AT_EPOCH   = 233
BSTAR          = .47136845E-3
MEAN_MOTION_DOT = .4305E-4
MEAN_MOTION_DDOT = 0

CCSDS_OMM_VERS = 2.0
CREATION_DATE  = 
ORIGINATOR     = 

OBJECT_NAME    = TWILIGHT AA
OBJECT_ID      = 2026-004AA
CENTER_NAME    = EARTH
REF_FRAME      = TEME
TIME_SYSTEM    = UTC
MEAN_ELEMENT_THEORY = SGP/SGP4

EPOCH          = 2026-01-27T06:38:08.456928
MEAN_MOTION    = 14.88595331
ECCENTRICITY   = .00030915
INCLINATION    = 97.8020
RA_OF_ASC_NODE = 28.2008
ARG_OF_PERICENTER = 165.3385
MEAN_ANOMALY   = 194.7923

EPHEMERIS_TYPE = 0
CLASSIFICATION_TYPE = U
NORAD_CAT_ID   = 67387
ELEMENT_SET_NO = 999
REV_AT_EPOCH   = 233
BSTAR          = .76457514E-3
MEAN_MOTION_DOT = .7071E-4
MEAN_MOTION_DDOT = 0

CCSDS_OMM_VERS = 2.0
CREATION_DATE  = 
ORIGINATOR     = 

OBJECT_NAME    = TWILIGHT AB
OBJECT_ID      = 2026-004AB
CENTER_NAME    = EARTH
REF_FRAME      = TEME
TIME_SYSTEM    = UTC
MEAN_ELEMENT_THEORY = SGP/SGP4

EPOCH          = 2026-01-27T04:59:27.381120
MEAN_MOTION    = 14.88696660
ECCENTRICITY   = .00027284
INCLINATION    = 97.8009
RA_OF_ASC_NODE = 28.1357
ARG_OF_PERICENTER = 151.6926
MEAN_ANOMALY   = 208.4440

EPHEMERIS_TYPE = 0
CLASSIFICATION_TYPE = U
NORAD_CAT_ID   = 67388
ELEMENT_SET_NO = 999
REV_AT_EPOCH   = 232
BSTAR          = .72024849E-3
MEAN_MOTION_DOT = .6674E-4
MEAN_MOTION_DDOT = 0

CCSDS_OMM_VERS = 2.0
CREATION_DATE  = 
ORIGINATOR     = 

OBJECT_NAME    = TWILIGHT AC
OBJECT_ID      = 2026-004AC
CENTER_NAME    = EARTH
REF_FRAME      = TEME
TIME_SYSTEM    = UTC
MEAN_ELEMENT_THEORY = SGP/SGP4

EPOCH          = 2026-01-27T05:57:33.316128
MEAN_MOTION    = 15.17023293
ECCENTRICITY   = .00052594
INCLINATION    = 97.4567
RA_OF_ASC_NODE = 28.3655
ARG_OF_PERICENTER = 102.7250
MEAN_ANOMALY   = 257.4571

EPHEMERIS_TYPE = 0
CLASSIFICATION_TYPE = U
NORAD_CAT_ID   = 67389
ELEMENT_SET_NO = 999
REV_AT_EPOCH   = 237
BSTAR          = .3698716E-3
MEAN_MOTION_DOT = .7251E-4
MEAN_MOTION_DDOT = 0

CCSDS_OMM_VERS = 2.0
CREATION_DATE  = 
ORIGINATOR     = 

OBJECT_NAME    = CONNECTA IOT-16
OBJECT_ID      = 2026-004AD
CENTER_NAME    = EARTH
REF_FRAME      = TEME
TIME_SYSTEM    = UTC
MEAN_ELEMENT_THEORY = SGP/SGP4

EPOCH          = 2026-01-27T05:56:50.447040
MEAN_MOTION    = 15.17039266
ECCENTRICITY   = .00054936
INCLINATION    = 97.4570
RA_OF_ASC_NODE = 28.3675
ARG_OF_PERICENTER = 101.4653
MEAN_ANOMALY   = 258.7197

EPHEMERIS_TYPE = 0
CLASSIFICATION_TYPE = U
NORAD_CAT_ID   = 67390
ELEMENT_SET_NO = 999
REV_AT_EPOCH   = 237
BSTAR          = .77687188E-3
MEAN_MOTION_DOT = .15327E-3
MEAN_MOTION_DDOT = 0

CCSDS_OMM_VERS = 2.0
CREATION_DATE  = 
ORIGINATOR     = 

OBJECT_NAME    = TWILIGHT AE
OBJECT_ID      = 2026-004AE
CENTER_NAME    = EARTH
REF_FRAME      = TEME
TIME_SYSTEM    = UTC
MEAN_ELEMENT_THEORY = SGP/SGP4

EPOCH          = 2026-01-27T05:53:58.458336
MEAN_MOTION    = 15.17205581
ECCENTRICITY   = .00068964
INCLINATION    = 97.4519
RA_OF_ASC_NODE = 28.3590
ARG_OF_PERICENTER = 97.5768
MEAN_ANOMALY   = 262.6249

EPHEMERIS_TYPE = 0
CLASSIFICATION_TYPE = U
NORAD_CAT_ID   = 67391
ELEMENT_SET_NO = 999
REV_AT_EPOCH   = 237
BSTAR          = .59767612E-3
MEAN_MOTION_DOT = .11829E-3
MEAN_MOTION_DDOT = 0

CCSDS_OMM_VERS = 2.0
CREATION_DATE  = 
ORIGINATOR     = 

OBJECT_NAME    = TWILIGHT AF
OBJECT_ID      = 2026-004AF
CENTER_NAME    = EARTH
REF_FRAME      = TEME
TIME_SYSTEM    = UTC
MEAN_ELEMENT_THEORY = SGP/SGP4

EPOCH          = 2026-01-27T05:50:25.745856
MEAN_MOTION    = 15.18049708
ECCENTRICITY   = .00081568
INCLINATION    = 97.4481
RA_OF_ASC_NODE = 28.3575
ARG_OF_PERICENTER = 104.9202
MEAN_ANOMALY   = 255.2935

EPHEMERIS_TYPE = 0
CLASSIFICATION_TYPE = U
NORAD_CAT_ID   = 67392
ELEMENT_SET_NO = 999
REV_AT_EPOCH   = 237
BSTAR          = .64650551E-2
MEAN_MOTION_DOT = .133987E-2
MEAN_MOTION_DDOT = 0

CCSDS_OMM_VERS = 2.0
CREATION_DATE  = 
ORIGINATOR     = 

OBJECT_NAME    = TWILIGHT AG
OBJECT_ID      = 2026-004AG
CENTER_NAME    = EARTH
REF_FRAME      = TEME
TIME_SYSTEM    = UTC
MEAN_ELEMENT_THEORY = SGP/SGP4

EPOCH          = 2026-01-27T07:23:56.743296
MEAN_MOTION    = 15.17889338
ECCENTRICITY   = .00078615
INCLINATION    = 97.4540
RA_OF_ASC_NODE = 28.4277
ARG_OF_PERICENTER = 107.9187
MEAN_ANOMALY   = 252.2905

EPHEMERIS_TYPE = 0
CLASSIFICATION_TYPE = U
NORAD_CAT_ID   = 67393
ELEMENT_SET_NO = 999
REV_AT_EPOCH   = 238
BSTAR          = .12534857E-2
MEAN_MOTION_DOT = .25425E-3
MEAN_MOTION_DDOT = 0

